{"type": "FeatureCollection", "features": [ {"type": "Feature", "properties": {"norad_id": 66469, "name": "STARLINK-35451", "group": "last-30-days", "lat": 29.443709273719787, "lon": 137.31423416966845, "alt_km": 411.23809517273185, "timestamp": "2025-12-07T18:50:15.513575+00:00", "meta": {"OBJECT_NAME": "STARLINK-35451", "OBJECT_ID": "2025-262P", "EPOCH": "2025-12-07T06:00:04.999968", "MEAN_MOTION": 15.50593539, "ECCENTRICITY": 0.00014142, "INCLINATION": 43.0007, "RA_OF_ASC_NODE": 103.1608, "ARG_OF_PERICENTER": 261.2034, "MEAN_ANOMALY": 35.8916, "EPHEMERIS_TYPE": 0, "CLASSIFICATION_TYPE": "U", "NORAD_CAT_ID": 66469, "ELEMENT_SET_NO": 999, "REV_AT_EPOCH": 475, "BSTAR": -0.0009614869, "MEAN_MOTION_DOT": -0.00056372, "MEAN_MOTION_DDOT": 0}, "tle": {"line1": "1 66469U 25262P   25341.25005787 -.00056372  00000+0 -96149-3 0  9993", "line2": "2 66469  43.0007 103.1608 0001414 261.2034  35.8916 15.50593539  4757"}}, "geometry": {"type": "Point", "coordinates": [137.31423416966845, 29.443709273719787]}}, {"type": "Feature", "properties": {"norad_id": 66470, "name": "STARLINK-35655", "group": "last-30-days", "lat": 27.316026524526976, "lon": 133.7011557224863, "alt_km": 411.4308865802568, "timestamp": "2025-12-07T18:50:15.513585+00:00", "meta": {"OBJECT_NAME": "STARLINK-35655", "OBJECT_ID": "2025-262Q", "EPOCH": "2025-12-07T06:00:04.999968", "MEAN_MOTION": 15.50530844, "ECCENTRICITY": 0.00015194, "INCLINATION": 43.0007, "RA_OF_ASC_NODE": 103.1708, "ARG_OF_PERICENTER": 269.2838, "MEAN_ANOMALY": 24.0228, "EPHEMERIS_TYPE": 0, "CLASSIFICATION_TYPE": "U", "NORAD_CAT_ID": 66470, "ELEMENT_SET_NO": 999, "REV_AT_EPOCH": 475, "BSTAR": 0.00032949558, "MEAN_MOTION_DOT": 0.00019002, "MEAN_MOTION_DDOT": 0}, "tle": {"line1": "1 66470U 25262Q   25341.25005787  .00019002  00000+0  32950-3 0  9992", "line2": "2 66470  43.0007 103.1708 0001519 269.2838  24.0228 15.50530844  4752"}}, "geometry": {"type": "Point", "coordinates": [133.7011557224863, 27.316026524526976]}}, {"type": "Feature", "properties": {"norad_id": 66471, "name": "STARLINK-35569", "group": "last-30-days", "lat": 28.357396894236178, "lon": 135.43097496736686, "alt_km": 411.09893327764803, "timestamp": "2025-12-07T18:50:15.513594+00:00", "meta": {"OBJECT_NAME": "STARLINK-35569", "OBJECT_ID": "2025-262R", "EPOCH": "2025-12-07T06:00:04.999968", "MEAN_MOTION": 15.50477239, "ECCENTRICITY": 0.00013099, "INCLINATION": 43.0006, "RA_OF_ASC_NODE": 103.1657, "ARG_OF_PERICENTER": 259.2375, "MEAN_ANOMALY": 35.9134, "EPHEMERIS_TYPE": 0, "CLASSIFICATION_TYPE": "U", "NORAD_CAT_ID": 66471, "ELEMENT_SET_NO": 999, "REV_AT_EPOCH": 475, "BSTAR": 0.0022450642, "MEAN_MOTION_DOT": 0.00133145, "MEAN_MOTION_DDOT": 0}, "tle": {"line1": "1 66471U 25262R   25341.25005787  .00133145  00000+0  22451-2 0  9992", "line2": "2 66471  43.0006 103.1657 0001309 259.2375  35.9134 15.50477239  4752"}}, "geometry": {"type": "Point", "coordinates": [135.43097496736686, 28.357396894236178]}}, {"type": "Feature", "properties": {"norad_id": 66472, "name": "STARLINK-35567", "group": "last-30-days", "lat": 30.470896443264753, "lon": 139.1789313914147, "alt_km": 411.13721382431595, "timestamp": "2025-12-07T18:50:15.513604+00:00", "meta": {"OBJECT_NAME": "STARLINK-35567", "OBJECT_ID": "2025-262S", "EPOCH": "2025-12-07T06:00:04.999968", "MEAN_MOTION": 15.50583869, "ECCENTRICITY": 0.00014838, "INCLINATION": 43.0006, "RA_OF_ASC_NODE": 103.1561, "ARG_OF_PERICENTER": 260.1028, "MEAN_ANOMALY": 38.9166, "EPHEMERIS_TYPE": 0, "CLASSIFICATION_TYPE": "U", "NORAD_CAT_ID": 66472, "ELEMENT_SET_NO": 999, "REV_AT_EPOCH": 475, "BSTAR": -0.00079244062, "MEAN_MOTION_DOT": -0.00046563, "MEAN_MOTION_DDOT": 0}, "tle": {"line1": "1 66472U 25262S   25341.25005787 -.00046563  00000+0 -79244-3 0  9995", "line2": "2 66472  43.0006 103.1561 0001483 260.1028  38.9166 15.50583869  4751"}}, "geometry": {"type": "Point", "coordinates": [139.1789313914147, 30.470896443264753]}}, {"type": "Feature", "properties": {"norad_id": 66473, "name": "STARLINK-35568", "group": "last-30-days", "lat": 31.471911216618924, "lon": 141.08470852454658, "alt_km": 411.0019532669985, "timestamp": "2025-12-07T18:50:15.513614+00:00", "meta": {"OBJECT_NAME": "STARLINK-35568", "OBJECT_ID": "2025-262T", "EPOCH": "2025-12-07T06:00:04.999968", "MEAN_MOTION": 15.5058736, "ECCENTRICITY": 0.00014911, "INCLINATION": 43.0006, "RA_OF_ASC_NODE": 103.1513, "ARG_OF_PERICENTER": 259.7221, "MEAN_ANOMALY": 41.2117, "EPHEMERIS_TYPE": 0, "CLASSIFICATION_TYPE": "U", "NORAD_CAT_ID": 66473, "ELEMENT_SET_NO": 999, "REV_AT_EPOCH": 475, "BSTAR": -0.00084225622, "MEAN_MOTION_DOT": -0.00049456, "MEAN_MOTION_DDOT": 0}, "tle": {"line1": "1 66473U 25262T   25341.25005787 -.00049456  00000+0 -84226-3 0  9996", "line2": "2 66473  43.0006 103.1513 0001491 259.7221  41.2117 15.50587360  4750"}}, "geometry": {"type": "Point", "coordinates": [141.08470852454658, 31.471911216618924]}}, {"type": "Feature", "properties": {"norad_id": 66474, "name": "STARLINK-35620", "group": "last-30-days", "lat": 32.443881191241765, "lon": 143.03048134258998, "alt_km": 410.8631402781657, "timestamp": "2025-12-07T18:50:15.513624+00:00", "meta": {"OBJECT_NAME": "STARLINK-35620", "OBJECT_ID": "2025-262U", "EPOCH": "2025-12-07T06:00:04.999968", "MEAN_MOTION": 15.50569466, "ECCENTRICITY": 0.00015077, "INCLINATION": 43.0007, "RA_OF_ASC_NODE": 103.1461, "ARG_OF_PERICENTER": 256.4323, "MEAN_ANOMALY": 46.4253, "EPHEMERIS_TYPE": 0, "CLASSIFICATION_TYPE": "U", "NORAD_CAT_ID": 66474, "ELEMENT_SET_NO": 999, "REV_AT_EPOCH": 475, "BSTAR": -0.00035722076, "MEAN_MOTION_DOT": -0.00021234, "MEAN_MOTION_DDOT": 0}, "tle": {"line1": "1 66474U 25262U   25341.25005787 -.00021234  00000+0 -35722-3 0  9998", "line2": "2 66474  43.0007 103.1461 0001507 256.4323  46.4253 15.50569466  4754"}}, "geometry": {"type": "Point", "coordinates": [143.03048134258998, 32.443881191241765]}}, {"type": "Feature", "properties": {"norad_id": 66475, "name": "STARLINK-35538", "group": "last-30-days", "lat": 33.382793160424846, "lon": 145.0143917186877, "alt_km": 410.85661373860876, "timestamp": "2025-12-07T18:50:15.513638+00:00", "meta": {"OBJECT_NAME": "STARLINK-35538", "OBJECT_ID": "2025-262V", "EPOCH": "2025-12-07T06:00:04.999968", "MEAN_MOTION": 15.50593994, "ECCENTRICITY": 0.0001592, "INCLINATION": 43.0007, "RA_OF_ASC_NODE": 103.1421, "ARG_OF_PERICENTER": 255.411, "MEAN_ANOMALY": 49.3574, "EPHEMERIS_TYPE": 0, "CLASSIFICATION_TYPE": "U", "NORAD_CAT_ID": 66475, "ELEMENT_SET_NO": 999, "REV_AT_EPOCH": 475, "BSTAR": -0.0011055763, "MEAN_MOTION_DOT": -0.00064702, "MEAN_MOTION_DDOT": 0}, "tle": {"line1": "1 66475U 25262V   25341.25005787 -.00064702  00000+0 -11056-2 0  9999", "line2": "2 66475  43.0007 103.1421 0001592 255.4110  49.3574 15.50593994  4759"}}, "geometry": {"type": "Point", "coordinates": [145.0143917186877, 33.382793160424846]}}, {"type": "Feature", "properties": {"norad_id": 66476, "name": "STARLINK-35372", "group": "last-30-days", "lat": 34.29165336575834, "lon": 147.04551208344634, "alt_km": 410.7046912193473, "timestamp": "2025-12-07T18:50:15.513647+00:00", "meta": {"OBJECT_NAME": "STARLINK-35372", "OBJECT_ID": "2025-262W", "EPOCH": "2025-12-07T06:00:04.999968", "MEAN_MOTION": 15.50571052, "ECCENTRICITY": 0.00016993, "INCLINATION": 43.0006, "RA_OF_ASC_NODE": 103.1371, "ARG_OF_PERICENTER": 257.9491, "MEAN_ANOMALY": 48.7376, "EPHEMERIS_TYPE": 0, "CLASSIFICATION_TYPE": "U", "NORAD_CAT_ID": 66476, "ELEMENT_SET_NO": 999, "REV_AT_EPOCH": 464, "BSTAR": -0.00039576964, "MEAN_MOTION_DOT": -0.00023484, "MEAN_MOTION_DDOT": 0}, "tle": {"line1": "1 66476U 25262W   25341.25005787 -.00023484  00000+0 -39577-3 0  9991", "line2": "2 66476  43.0006 103.1371 0001699 257.9491  48.7376 15.50571052  4642"}}, "geometry": {"type": "Point", "coordinates": [147.04551208344634, 34.29165336575834]}}, {"type": "Feature", "properties": {"norad_id": 66477, "name": "STARLINK-35354", "group": "last-30-days", "lat": 36.00211872523183, "lon": 151.23269142021655, "alt_km": 410.367057802634, "timestamp": "2025-12-07T18:50:15.513657+00:00", "meta": {"OBJECT_NAME": "STARLINK-35354", "OBJECT_ID": "2025-262X", "EPOCH": "2025-12-07T06:00:04.999968", "MEAN_MOTION": 15.50602002, "ECCENTRICITY": 0.00014205, "INCLINATION": 43.0006, "RA_OF_ASC_NODE": 103.1265, "ARG_OF_PERICENTER": 258.5041, "MEAN_ANOMALY": 52.0111, "EPHEMERIS_TYPE": 0, "CLASSIFICATION_TYPE": "U", "NORAD_CAT_ID": 66477, "ELEMENT_SET_NO": 999, "REV_AT_EPOCH": 475, "BSTAR": -0.0013252093, "MEAN_MOTION_DOT": -0.00077384, "MEAN_MOTION_DDOT": 0}, "tle": {"line1": "1 66477U 25262X   25341.25005787 -.00077384  00000+0 -13252-2 0  9991", "line2": "2 66477  43.0006 103.1265 0001420 258.5041  52.0111 15.50602002  4752"}}, "geometry": {"type": "Point", "coordinates": [151.23269142021655, 36.00211872523183]}}, {"type": "Feature", "properties": {"norad_id": 66478, "name": "STARLINK-35283", "group": "last-30-days", "lat": 36.81186664947834, "lon": 153.42287036993073, "alt_km": 410.10733849407825, "timestamp": "2025-12-07T18:50:15.513667+00:00", "meta": {"OBJECT_NAME": "STARLINK-35283", "OBJECT_ID": "2025-262Y", "EPOCH": "2025-12-07T06:00:04.999968", "MEAN_MOTION": 15.50525786, "ECCENTRICITY": 0.00015966, "INCLINATION": 43.0006, "RA_OF_ASC_NODE": 103.1211, "ARG_OF_PERICENTER": 259.4412, "MEAN_ANOMALY": 53.0103, "EPHEMERIS_TYPE": 0, "CLASSIFICATION_TYPE": "U", "NORAD_CAT_ID": 66478, "ELEMENT_SET_NO": 999, "REV_AT_EPOCH": 475, "BSTAR": 0.0011844418, "MEAN_MOTION_DOT": 0.00069632, "MEAN_MOTION_DDOT": 0}, "tle": {"line1": "1 66478U 25262Y   25341.25005787  .00069632  00000+0  11844-2 0  9992", "line2": "2 66478  43.0006 103.1211 0001596 259.4412  53.0103 15.50525786  4755"}}, "geometry": {"type": "Point", "coordinates": [153.42287036993073, 36.81186664947834]}}]}